CIC_OEM_VERS = 2.0
CREATION_DATE = 2025-01-22T18:50:01.508425
ORIGINATOR = ISAE-SUPAERO


META_START
OBJECT_NAME = PLEIADES-NEO3
OBJECT_ID = PLEIADES-NEO3
CENTER_NAME = Earth
REF_FRAME = EME2000
TIME_SYSTEM = UTC
START_TIME = 2025-01-22T12:07:20.480
USEABLE_START_TIME = 2025-01-22T12:07:20.480
USEABLE_STOP_TIME = 2025-01-22T23:59:50.480
STOP_TIME = 2025-01-22T23:59:50.480
INTERPOLATION = lagrange
INTERPOLATION_DEGREE = 5
META_STOP


60697 43640.48 -1165.4759 6904.4547 14.683905000000001 1.0245416 0.1562348 7.473405800000001
60697 44090.48 -587.74206 6174.9768 3245.375 1.4923446 -3.3331021 6.6015915000000005
60697 44540.48 125.56886 4021.3725 5725.714400000001 1.6155253 -6.0492999 4.2055788000000005
60697 44990.48 810.0063 941.67393 6884.3496 1.3667133 -7.3692319 0.8430263800000001
60697 45440.48 1308.0745 -2354.6656000000003 6454.9737000000005 0.80334266 -6.9933263 -2.7144194
60697 45890.48 1504.6802 -5107.9030999999995 4534.6356 0.053492738000000005 -5.0040271 -5.6522966
60697 46340.48 1355.5133 -6687.0086 1569.867 -0.70948946 -1.8529225 -7.2797434
60697 46790.48 891.8580400000001 -6714.1628 -1759.5768 -1.309049 1.7193446 -7.2328117
60697 47240.48 222.24512 -5189.152099999999 -4679.6684000000005 -1.608341 4.9053799 -5.5123466
60697 47690.48 -499.04682 -2463.3201000000004 -6515.7880000000005 -1.5357075 6.958640000000001 -2.5120094
60697 48140.48 -1105.2221000000002 830.13077 -6845.7445 -1.1062843 7.3957184 1.0739295
60697 48590.48 -1456.0299 3933.1932 -5588.2034 -0.42148167000000003 6.1217274 4.4068116
60697 49040.48 -1469.8427 6125.7408 -3034.0868 0.36137535000000004 3.4301926 6.720253700000001
60697 49490.48 -1143.4294 6900.303 224.26934 1.0605590999999999 -0.054997238000000004 7.4743515
60697 49940.48 -552.6178000000001 6079.395 3430.8747000000003 1.5132657999999999 -3.5191552 6.496781299999999
60697 50390.48 165.67226000000002 3857.1424 5845.438099999999 1.6161978 -6.160622099999999 4.025149600000001
60697 50840.48 845.9721800000001 749.43121 6915.091200000001 1.3483516 -7.3807935 0.63708635
60697 51290.48 1332.5725 -2530.0037 6397.1493 0.77200442 -6.9096535 -2.894391
60697 51740.48 1513.7997 -5229.3998 4409.5471 0.017249897 -4.8515949 -5.7676302999999995
60697 52190.48 1347.0098 -6726.3054 1405.6761999999999 -0.74438426 -1.6681118 -7.3197016999999995
60697 52640.48 869.48449 -6671.0892 -1922.7491000000002 -1.3363414 1.9099738 -7.1809468
60697 53090.48 190.94998 -5073.602900000001 -4805.3989 -1.61984 5.049974000000001 -5.3771103
60697 53540.48 -531.74985 -2302.8875000000003 -6574.0342 -1.5287471000000001 7.021032 -2.3281364
60697 53990.48 -1131.4823999999999 1000.1419000000001 -6818.845 -1.0842338999999999 7.3693571 1.2608042000000002
60697 54440.48 -1470.4135 4073.5121000000004 -5486.912200000001 -0.38707833 6.0056784 4.5615605
60697 54890.48 -1469.7953 6204.267 -2887.0526 0.39783647000000005 3.2560832 6.7960885
60697 55340.48 -1128.9325000000001 6899.9975 384.49831 1.0901420000000002 -0.23775860000000001 7.4617335
60697 55790.48 -526.2081400000001 5996.42 3568.3608 1.5323974 -3.6790495 6.4089202
60697 56240.48 198.66343 3702.4974 5923.8593 1.6219635000000001 -6.2790501 3.8701631
60697 56690.48 877.4198700000001 553.48652 6906.047500000001 1.334714 -7.4240221 0.42515634
60697 57140.48 1354.3226000000002 -2722.2562000000003 6295.9310000000005 0.73607929 -6.8347414 -3.1169189000000004
60697 57590.48 1517.1906000000001 -5366.7485 4221.974 -0.03028484 -4.6731038 -5.9285143
60697 58040.48 1330.5140000000001 -6775.832200000001 1171.4933 -0.79083434 -1.4236244 -7.3648033999999996
60697 58490.48 834.93789 -6609.9217 -2149.3877 -1.3684132 2.14697 -7.103120700000001
60697 58940.48 146.67697 -4918.429700000001 -4972.8426 -1.6302599 5.2224775 -5.1979112
60697 59390.48 -575.43366 -2092.2197 -6646.1877 -1.515959 7.0910027 -2.0927495
60697 59840.48 -1164.8673000000001 1216.3552 -6783.3014 -1.0521355000000001 7.3243352 1.4956898
60697 60290.48 -1485.6122 4245.3003 -5350.719099999999 -0.344459 5.8660524 4.7438319
60697 60740.48 -1462.8326000000002 6291.553900000001 -2679.0745 0.44410273 3.0478761 6.8967808999999995
60697 61190.48 -1101.4111 6881.3818 614.4101999999999 1.1304167 -0.47791171000000005 7.4509617
60697 61640.48 -485.11017 5878.9457 3765.6420000000003 1.5543965000000002 -3.887502 6.2779451
60697 62090.48 243.47705 3517.8339 6045.5328 1.6192337 -6.3917403 3.6590908
60697 62540.48 916.0509300000001 348.29335 6931.9430999999995 1.3115048999999999 -7.418488099999999 0.20450349
60697 62990.48 1378.3906000000002 -2901.3232000000003 6223.0278 0.7030840100000001 -6.7414222 -3.2934284
60697 63440.48 1524.2507 -5484.652400000001 4081.7290000000003 -0.06782683299999999 -4.5140558 -6.0374214
60697 63890.48 1319.4417 -6806.1125999999995 999.01771 -0.824924 -1.2413881 -7.3934457
60697 64340.48 810.43449 -6558.1458 -2314.349 -1.3928081 2.3220185 -7.0417184
60697 64790.48 114.48606 -4797.339 -5092.3966 -1.6393901000000002 5.3493993 -5.0617511
60697 65240.48 -607.8763 -1930.5221000000001 -6693.5123 -1.5079726 7.1412141 -1.9143239
60697 65690.48 -1190.1751000000002 1381.0723 -6748.4673 -1.0290399000000001 7.287461599999999 1.6754097
60697 66140.48 -1498.2223000000001 4374.731900000001 -5244.0755 -0.31160557 5.7505404 4.8830278
60697 66590.48 -1461.5958 6361.9137 -2530.2836 0.47798497 2.8816044 6.956519500000001
60697 67040.48 -1086.1223 6873.9851 771.2461 1.1578932 -0.65035996 7.4272085
60697 67490.48 -459.08384 5793.6904 3893.207 1.5715534 -4.0335918 6.1845429
60697 67940.48 273.89579 3373.7167999999997 6110.8948 1.6233398 -6.4873463000000005 3.5149052000000003
60697 68390.48 944.40912 177.08853 6922.1144 1.298319 -7.4371217 0.02506852
60697 68840.48 1397.1671000000001 -3060.4494 6132.9427000000005 0.67451728 -6.6691761 -3.4624317000000002
60697 69290.48 1528.0397 -5593.001700000001 3927.1131 -0.10422398 -4.3656168 -6.147895800000001
60697 69740.48 1307.0123999999998 -6837.5985 814.4712 -0.85875879 -1.0574503 -7.413342
60697 70190.48 785.16079 -6508.5662999999995 -2486.1967000000004 -1.4149419 2.4901237000000003 -6.9680216
60697 70640.48 82.827208 -4683.957 -5214.485900000001 -1.6452396000000002 5.4589547000000005 -4.920252400000001
60697 71090.48 -638.52488 -1785.2731 -6744.1102 -1.4980884 7.1719622 -1.7451352
60697 71540.48 -1213.5178 1522.4317 -6724.1419000000005 -1.0072449 7.2413334 1.8335201
60697 71990.48 -1509.7262 4479.9976 -5155.915900000001 -0.28285066000000003 5.644267 5.0016959
60697 72440.48 -1457.5225 6403.3279 -2395.1829 0.5104888399999999 2.7344041000000003 7.025883
60697 72890.48 -1067.6514 6842.898700000001 921.44118 1.1882179000000002 -0.82079755 7.4221646
60697 73340.48 -429.81341 5693.2116 4023.4555 1.5903682 -4.1870728 6.0908539
60697 73790.48 307.80501000000004 3222.5325000000003 6189.7455 1.6231788 -6.5755405 3.347979
60697 74240.48 974.2866899999999 5.0726372 6919.1374000000005 1.2810137 -7.439542 -0.16355365
60697 74690.48 1416.0364 -3213.6129 6048.2973 0.64382615 -6.5844589 -3.6297147
60697 75140.48 1531.3414 -5691.5537 3779.4616 -0.14137016 -4.2122599 -6.2549819
60697 75590.48 1293.7613999999999 -6858.0487 637.34775 -0.89368541 -0.87057805 -7.434457800000001
60697 76040.48 758.29136 -6445.6051 -2652.0059 -1.4393325 2.6664920000000003 -6.8976562
60697 76490.48 48.484545 -4551.9468 -5330.795700000001 -1.6534043 5.5833073 -4.7751019
60697 76940.48 -672.47732 -1614.7136 -6784.4785 -1.4882541000000002 7.215648900000001 -1.5595179000000001
60697 77390.48 -1239.3718000000001 1692.3242 -6679.890200000001 -0.98180663 7.194817100000001 2.0166004
60697 77840.48 -1521.6739 4610.3645 -5037.866900000001 -0.24768962 5.5185675000000005 5.1401806
60697 78290.48 -1452.9535 6464.500599999999 -2231.0982999999997 0.5473183 2.5585338 7.088034899999999
60697 78740.48 -1047.7366 6821.1594000000005 1093.2776999999999 1.2182588 -1.0061685 7.393814000000001
60697 79190.48 -399.24223 5593.9975 4163.0746 1.6067703 -4.3393426 5.9788613999999995
60697 79640.48 341.94043 3069.0857 6264.9818 1.6221687 -6.6598594 3.1781457
60697 80090.48 1003.9455 -167.48714999999999 6911.1163 1.2628015000000001 -7.4379427 -0.3537222
60697 80540.48 1434.2776000000001 -3365.4389 5958.2753 0.6122324 -6.4954545 -3.7969604
60697 80990.48 1533.6295 -5786.8425 3626.8325 -0.1792921 -4.0547049 -6.3602838
60697 81440.48 1279.2203000000002 -6873.496700000001 456.50134 -0.9290330400000001 -0.68038316 -7.4517946
60697 81890.48 730.0528800000001 -6376.5346 -2819.4522 -1.4635943 2.8441898 -6.8219356
60697 82340.48 12.988691999999999 -4413.857900000001 -5446.1928 -1.6607436 5.706048399999999 -4.6242568
60697 82790.48 -707.09663 -1439.4823999999999 -6821.6412 -1.477143 7.2547920999999995 -1.3697253
60697 83240.48 -1265.2951 1864.394 -6631.215400000001 -0.95506705 7.142064 2.2007184000000004
60697 83690.48 -1533.1803 4740.1181 -4915.737400000001 -0.21161993 5.387054600000001 5.276156
60697 84140.48 -1447.6823000000002 6522.9506 -2064.6737 0.58440644 2.3790848 7.1451158999999995
60697 84590.48 -1027.1578000000002 6795.7946 1264.9517 1.2478978 -1.1919656 7.3597653
60697 85040.48 -368.28990000000005 5491.579 4300.165599999999 1.6223694000000002 -4.4895002 5.8622305
60697 85490.48 376.03501 2913.6316 6335.712 1.6202844 -6.7408987 3.0057472
60697 85940.48 1032.9948000000002 -341.07364 6895.8055 1.2437392 -7.434496500000001 -0.54714026
60697 86390.48 1451.4329 -3516.9454 5859.6512999999995 0.5793199499999999 -6.4026885 -3.967584

